{
  "type": "FeatureCollection",
  "features": [
    {
      "type": "Feature",
      "properties": {
        "pipeline_id": 1,
        "code": "AKK-SEC1",
        "name": "Ajaokuta\u2013Kaduna\u2013Kano (AKK) Gas Pipeline \u2014 Kogi Corridor",
        "substance": "Natural Gas",
        "operator": "NNPC Limited / Gas Aggregation Company",
        "pipe_diameter_inches": 40.0,
        "operating_pressure_psig": 1440.0,
        "pipe_material": "API 5L X80",
        "design_wall_thickness_mm": 22.2,
        "total_length_km": 116.3,
        "avg_failure_probability": 0.158,
        "max_failure_probability": 0.3434,
        "risk_label": "Low",
        "critical_kps_count": 0,
        "high_kps_count": 0,
        "construction_start_date": "2020-06",
        "construction_age_years": 6,
        "operational_start_date": "2026",
        "operational_age_years": 0,
        "operational_status": "Phased commissioning in progress",
        "commissioning_note": "Construction was flagged off in June 2020 and is now 6 years old. The pipeline remains at 0 years of active operational age because official phased commissioning and initial gas deliveries are still being activated in 2026."
      },
      "geometry": {
        "type": "LineString",
        "coordinates": [
          [
            6.6552,
            7.5564
          ],
          [
            6.661114,
            7.56322
          ],
          [
            6.667028,
            7.57004
          ],
          [
            6.672941,
            7.57686
          ],
          [
            6.678855,
            7.58368
          ],
          [
            6.684718,
            7.590543
          ],
          [
            6.690568,
            7.597417
          ],
          [
            6.696418,
            7.604292
          ],
          [
            6.702269,
            7.611166
          ],
          [
            6.708119,
            7.61804
          ],
          [
            6.713969,
            7.624914
          ],
          [
            6.719819,
            7.631788
          ],
          [
            6.724924,
            7.639221
          ],
          [
            6.730004,
            7.646673
          ],
          [
            6.735085,
            7.654125
          ],
          [
            6.740166,
            7.661576
          ],
          [
            6.745246,
            7.669028
          ],
          [
            6.750327,
            7.676479
          ],
          [
            6.755407,
            7.683931
          ],
          [
            6.760488,
            7.691382
          ],
          [
            6.765569,
            7.698834
          ],
          [
            6.770649,
            7.706286
          ],
          [
            6.77573,
            7.713737
          ],
          [
            6.78093,
            7.721099
          ],
          [
            6.786762,
            7.727991
          ],
          [
            6.792593,
            7.734883
          ],
          [
            6.798425,
            7.741775
          ],
          [
            6.804256,
            7.748666
          ],
          [
            6.810088,
            7.755558
          ],
          [
            6.815919,
            7.76245
          ],
          [
            6.82175,
            7.769341
          ],
          [
            6.827582,
            7.776233
          ],
          [
            6.833413,
            7.783125
          ],
          [
            6.839245,
            7.790017
          ],
          [
            6.845076,
            7.796908
          ],
          [
            6.850908,
            7.8038
          ],
          [
            6.856739,
            7.810692
          ],
          [
            6.862571,
            7.817584
          ],
          [
            6.868402,
            7.824475
          ],
          [
            6.874234,
            7.831367
          ],
          [
            6.880065,
            7.838259
          ],
          [
            6.885897,
            7.84515
          ],
          [
            6.891893,
            7.851893
          ],
          [
            6.898283,
            7.858283
          ],
          [
            6.904672,
            7.864672
          ],
          [
            6.911062,
            7.871062
          ],
          [
            6.917451,
            7.877451
          ],
          [
            6.923841,
            7.883841
          ],
          [
            6.930231,
            7.890231
          ],
          [
            6.93662,
            7.89662
          ],
          [
            6.94301,
            7.90301
          ],
          [
            6.949399,
            7.909399
          ],
          [
            6.955789,
            7.915789
          ],
          [
            6.962178,
            7.922178
          ],
          [
            6.968568,
            7.928568
          ],
          [
            6.974957,
            7.934957
          ],
          [
            6.981347,
            7.941347
          ],
          [
            6.987736,
            7.947736
          ],
          [
            6.994126,
            7.954126
          ],
          [
            7.000515,
            7.960515
          ],
          [
            7.006905,
            7.966905
          ],
          [
            7.013294,
            7.973294
          ],
          [
            7.019684,
            7.979684
          ],
          [
            7.025843,
            7.986293
          ],
          [
            7.031991,
            7.992913
          ],
          [
            7.038138,
            7.999533
          ],
          [
            7.044286,
            8.006154
          ],
          [
            7.050433,
            8.012774
          ],
          [
            7.05658,
            8.019394
          ],
          [
            7.062728,
            8.026015
          ],
          [
            7.068875,
            8.032635
          ],
          [
            7.075023,
            8.039255
          ],
          [
            7.08117,
            8.045875
          ],
          [
            7.087317,
            8.052496
          ],
          [
            7.093465,
            8.059116
          ],
          [
            7.099612,
            8.065736
          ],
          [
            7.10576,
            8.072357
          ],
          [
            7.111907,
            8.078977
          ],
          [
            7.118055,
            8.085597
          ],
          [
            7.124202,
            8.092218
          ],
          [
            7.130349,
            8.098838
          ],
          [
            7.136497,
            8.105458
          ],
          [
            7.142644,
            8.112078
          ],
          [
            7.148792,
            8.118699
          ],
          [
            7.153033,
            8.126572
          ],
          [
            7.156809,
            8.134752
          ],
          [
            7.160584,
            8.142932
          ],
          [
            7.16436,
            8.151112
          ],
          [
            7.168135,
            8.159292
          ],
          [
            7.17191,
            8.167472
          ],
          [
            7.175686,
            8.175652
          ],
          [
            7.179461,
            8.183832
          ],
          [
            7.183237,
            8.192013
          ],
          [
            7.187012,
            8.200193
          ],
          [
            7.190787,
            8.208373
          ],
          [
            7.194563,
            8.216553
          ],
          [
            7.198338,
            8.224733
          ],
          [
            7.202114,
            8.232913
          ],
          [
            7.205889,
            8.241093
          ],
          [
            7.209664,
            8.249273
          ],
          [
            7.212113,
            8.257923
          ],
          [
            7.214432,
            8.266618
          ],
          [
            7.21675,
            8.275314
          ],
          [
            7.219069,
            8.284009
          ],
          [
            7.221388,
            8.292705
          ],
          [
            7.223707,
            8.301401
          ],
          [
            7.226026,
            8.310096
          ],
          [
            7.228345,
            8.318792
          ],
          [
            7.230663,
            8.327488
          ],
          [
            7.232982,
            8.336183
          ],
          [
            7.235301,
            8.344879
          ],
          [
            7.23762,
            8.353574
          ],
          [
            7.239939,
            8.36227
          ],
          [
            7.242257,
            8.370966
          ],
          [
            7.244576,
            8.379661
          ],
          [
            7.246895,
            8.388357
          ],
          [
            7.249214,
            8.397052
          ],
          [
            7.25,
            8.4
          ]
        ]
      }
    },
    {
      "type": "Feature",
      "properties": {
        "pipeline_id": 2,
        "code": "GER-FEED",
        "name": "Geregu Power Plant Gas Supply Pipeline",
        "substance": "Natural Gas",
        "operator": "Nigerian Gas Infrastructure Company (NGIC)",
        "pipe_diameter_inches": 24.0,
        "operating_pressure_psig": 1000.0,
        "pipe_material": "API 5L X65",
        "design_wall_thickness_mm": 14.3,
        "total_length_km": 9.4,
        "avg_failure_probability": 0.2335,
        "max_failure_probability": 0.3503,
        "risk_label": "Medium",
        "critical_kps_count": 0,
        "high_kps_count": 0
      },
      "geometry": {
        "type": "LineString",
        "coordinates": [
          [
            6.6552,
            7.5564
          ],
          [
            6.65589,
            7.547433
          ],
          [
            6.65658,
            7.538466
          ],
          [
            6.657269,
            7.529498
          ],
          [
            6.657959,
            7.520531
          ],
          [
            6.658338,
            7.511546
          ],
          [
            6.658698,
            7.50256
          ],
          [
            6.659079,
            7.493575
          ],
          [
            6.659578,
            7.484595
          ],
          [
            6.660077,
            7.475616
          ],
          [
            6.6603,
            7.4716
          ]
        ]
      }
    },
    {
      "type": "Feature",
      "properties": {
        "pipeline_id": 3,
        "code": "OBJ-LINE",
        "name": "Ajaokuta\u2013Obajana Gas Pipeline",
        "substance": "Natural Gas",
        "operator": "NGIC / Dangote Gas Distribution",
        "pipe_diameter_inches": 18.0,
        "operating_pressure_psig": 850.0,
        "pipe_material": "API 5L X52",
        "design_wall_thickness_mm": 11.9,
        "total_length_km": 69.4,
        "avg_failure_probability": 0.1268,
        "max_failure_probability": 0.3377,
        "risk_label": "Low",
        "critical_kps_count": 0,
        "high_kps_count": 0
      },
      "geometry": {
        "type": "LineString",
        "coordinates": [
          [
            6.6552,
            7.5564
          ],
          [
            6.646635,
            7.553436
          ],
          [
            6.63807,
            7.550473
          ],
          [
            6.629505,
            7.547509
          ],
          [
            6.62094,
            7.544546
          ],
          [
            6.612375,
            7.541582
          ],
          [
            6.60381,
            7.538619
          ],
          [
            6.595246,
            7.535655
          ],
          [
            6.586681,
            7.532692
          ],
          [
            6.578116,
            7.529728
          ],
          [
            6.569551,
            7.526765
          ],
          [
            6.560986,
            7.523801
          ],
          [
            6.552421,
            7.520838
          ],
          [
            6.543662,
            7.521463
          ],
          [
            6.534827,
            7.523502
          ],
          [
            6.525991,
            7.52554
          ],
          [
            6.517156,
            7.527579
          ],
          [
            6.508321,
            7.529618
          ],
          [
            6.499485,
            7.531657
          ],
          [
            6.49065,
            7.533696
          ],
          [
            6.481815,
            7.535735
          ],
          [
            6.472979,
            7.537774
          ],
          [
            6.464144,
            7.539813
          ],
          [
            6.455309,
            7.541852
          ],
          [
            6.446473,
            7.543891
          ],
          [
            6.437638,
            7.54593
          ],
          [
            6.428803,
            7.547969
          ],
          [
            6.41999,
            7.550032
          ],
          [
            6.417343,
            7.558634
          ],
          [
            6.414697,
            7.567236
          ],
          [
            6.41205,
            7.575838
          ],
          [
            6.409403,
            7.58444
          ],
          [
            6.406756,
            7.593042
          ],
          [
            6.404109,
            7.601644
          ],
          [
            6.401463,
            7.610246
          ],
          [
            6.398816,
            7.618848
          ],
          [
            6.396169,
            7.62745
          ],
          [
            6.393522,
            7.636052
          ],
          [
            6.390876,
            7.644654
          ],
          [
            6.388229,
            7.653257
          ],
          [
            6.385582,
            7.661859
          ],
          [
            6.382935,
            7.670461
          ],
          [
            6.380288,
            7.679063
          ],
          [
            6.380571,
            7.687993
          ],
          [
            6.381212,
            7.696964
          ],
          [
            6.381852,
            7.705935
          ],
          [
            6.382493,
            7.714906
          ],
          [
            6.383134,
            7.723876
          ],
          [
            6.383775,
            7.732847
          ],
          [
            6.384416,
            7.741818
          ],
          [
            6.385056,
            7.750789
          ],
          [
            6.385697,
            7.759759
          ],
          [
            6.386338,
            7.76873
          ],
          [
            6.386979,
            7.777701
          ],
          [
            6.387619,
            7.786672
          ],
          [
            6.38826,
            7.795643
          ],
          [
            6.388901,
            7.804613
          ],
          [
            6.389542,
            7.813584
          ],
          [
            6.391098,
            7.822319
          ],
          [
            6.394955,
            7.83046
          ],
          [
            6.398811,
            7.838602
          ],
          [
            6.402668,
            7.846743
          ],
          [
            6.406524,
            7.854885
          ],
          [
            6.410381,
            7.863026
          ],
          [
            6.414237,
            7.871168
          ],
          [
            6.418094,
            7.879309
          ],
          [
            6.42195,
            7.887451
          ],
          [
            6.425807,
            7.895592
          ],
          [
            6.429663,
            7.903734
          ],
          [
            6.43352,
            7.911875
          ],
          [
            6.435,
            7.915
          ]
        ]
      }
    },
    {
      "type": "Feature",
      "properties": {
        "pipeline_id": 4,
        "code": "OBN-AJA",
        "name": "Oben\u2013Ajaokuta Gas Trunk Line (Western Line)",
        "substance": "Rich Natural Gas",
        "operator": "NNPC Gas Infrastructure Company",
        "pipe_diameter_inches": 24.0,
        "operating_pressure_psig": 1200.0,
        "pipe_material": "API 5L X65",
        "design_wall_thickness_mm": 15.9,
        "total_length_km": 171.5,
        "avg_failure_probability": 0.1258,
        "max_failure_probability": 0.4498,
        "risk_label": "High",
        "critical_kps_count": 0,
        "high_kps_count": 2
      },
      "geometry": {
        "type": "LineString",
        "coordinates": [
          [
            6.02,
            6.15
          ],
          [
            6.024238,
            6.157946
          ],
          [
            6.028476,
            6.165892
          ],
          [
            6.032713,
            6.173837
          ],
          [
            6.036951,
            6.181783
          ],
          [
            6.041189,
            6.189729
          ],
          [
            6.045427,
            6.197675
          ],
          [
            6.049664,
            6.205621
          ],
          [
            6.053902,
            6.213566
          ],
          [
            6.05814,
            6.221512
          ],
          [
            6.062378,
            6.229458
          ],
          [
            6.066615,
            6.237404
          ],
          [
            6.070853,
            6.24535
          ],
          [
            6.075091,
            6.253295
          ],
          [
            6.079329,
            6.261241
          ],
          [
            6.083566,
            6.269187
          ],
          [
            6.087804,
            6.277133
          ],
          [
            6.092042,
            6.285079
          ],
          [
            6.09628,
            6.293024
          ],
          [
            6.100517,
            6.30097
          ],
          [
            6.104755,
            6.308916
          ],
          [
            6.108993,
            6.316862
          ],
          [
            6.113231,
            6.324807
          ],
          [
            6.117468,
            6.332753
          ],
          [
            6.121706,
            6.340699
          ],
          [
            6.125944,
            6.348645
          ],
          [
            6.130182,
            6.356591
          ],
          [
            6.134419,
            6.364536
          ],
          [
            6.138657,
            6.372482
          ],
          [
            6.142895,
            6.380428
          ],
          [
            6.147133,
            6.388374
          ],
          [
            6.15137,
            6.39632
          ],
          [
            6.155608,
            6.404265
          ],
          [
            6.159846,
            6.412211
          ],
          [
            6.164084,
            6.420157
          ],
          [
            6.168321,
            6.428103
          ],
          [
            6.172559,
            6.436049
          ],
          [
            6.176797,
            6.443994
          ],
          [
            6.180918,
            6.451998
          ],
          [
            6.184677,
            6.460179
          ],
          [
            6.188436,
            6.468361
          ],
          [
            6.192195,
            6.476542
          ],
          [
            6.195954,
            6.484724
          ],
          [
            6.199713,
            6.492905
          ],
          [
            6.203472,
            6.501086
          ],
          [
            6.207231,
            6.509268
          ],
          [
            6.21099,
            6.517449
          ],
          [
            6.214749,
            6.525631
          ],
          [
            6.218508,
            6.533812
          ],
          [
            6.222267,
            6.541994
          ],
          [
            6.226026,
            6.550175
          ],
          [
            6.229785,
            6.558357
          ],
          [
            6.233545,
            6.566538
          ],
          [
            6.237304,
            6.57472
          ],
          [
            6.241063,
            6.582901
          ],
          [
            6.244822,
            6.591082
          ],
          [
            6.248581,
            6.599264
          ],
          [
            6.25234,
            6.607445
          ],
          [
            6.256099,
            6.615627
          ],
          [
            6.259858,
            6.623808
          ],
          [
            6.263617,
            6.63199
          ],
          [
            6.267376,
            6.640171
          ],
          [
            6.271135,
            6.648353
          ],
          [
            6.274894,
            6.656534
          ],
          [
            6.278653,
            6.664716
          ],
          [
            6.282412,
            6.672897
          ],
          [
            6.286171,
            6.681078
          ],
          [
            6.28993,
            6.68926
          ],
          [
            6.293689,
            6.697441
          ],
          [
            6.297448,
            6.705623
          ],
          [
            6.301207,
            6.713804
          ],
          [
            6.304966,
            6.721986
          ],
          [
            6.308725,
            6.730167
          ],
          [
            6.312485,
            6.738349
          ],
          [
            6.316244,
            6.74653
          ],
          [
            6.320003,
            6.754712
          ],
          [
            6.323762,
            6.762893
          ],
          [
            6.327521,
            6.771074
          ],
          [
            6.33128,
            6.779256
          ],
          [
            6.335039,
            6.787437
          ],
          [
            6.338798,
            6.795619
          ],
          [
            6.342557,
            6.8038
          ],
          [
            6.346316,
            6.811982
          ],
          [
            6.350066,
            6.820167
          ],
          [
            6.353365,
            6.828543
          ],
          [
            6.356665,
            6.836918
          ],
          [
            6.359964,
            6.845294
          ],
          [
            6.363264,
            6.85367
          ],
          [
            6.366563,
            6.862046
          ],
          [
            6.369863,
            6.870421
          ],
          [
            6.373162,
            6.878797
          ],
          [
            6.376462,
            6.887173
          ],
          [
            6.379761,
            6.895548
          ],
          [
            6.383061,
            6.903924
          ],
          [
            6.38636,
            6.9123
          ],
          [
            6.38966,
            6.920675
          ],
          [
            6.392959,
            6.929051
          ],
          [
            6.396259,
            6.937427
          ],
          [
            6.399559,
            6.945802
          ],
          [
            6.402858,
            6.954178
          ],
          [
            6.406158,
            6.962554
          ],
          [
            6.409457,
            6.970929
          ],
          [
            6.412757,
            6.979305
          ],
          [
            6.416056,
            6.987681
          ],
          [
            6.419356,
            6.996057
          ],
          [
            6.422655,
            7.004432
          ],
          [
            6.425955,
            7.012808
          ],
          [
            6.429254,
            7.021184
          ],
          [
            6.432554,
            7.029559
          ],
          [
            6.435853,
            7.037935
          ],
          [
            6.439153,
            7.046311
          ],
          [
            6.442452,
            7.054686
          ],
          [
            6.445752,
            7.063062
          ],
          [
            6.449051,
            7.071438
          ],
          [
            6.452351,
            7.079813
          ],
          [
            6.45565,
            7.088189
          ],
          [
            6.45895,
            7.096565
          ],
          [
            6.462249,
            7.10494
          ],
          [
            6.465549,
            7.113316
          ],
          [
            6.468848,
            7.121692
          ],
          [
            6.472148,
            7.130068
          ],
          [
            6.475447,
            7.138443
          ],
          [
            6.478747,
            7.146819
          ],
          [
            6.482227,
            7.155122
          ],
          [
            6.485817,
            7.16338
          ],
          [
            6.489408,
            7.171637
          ],
          [
            6.492998,
            7.179895
          ],
          [
            6.496588,
            7.188153
          ],
          [
            6.500179,
            7.196411
          ],
          [
            6.503769,
            7.204669
          ],
          [
            6.50736,
            7.212927
          ],
          [
            6.51095,
            7.221185
          ],
          [
            6.51454,
            7.229443
          ],
          [
            6.518131,
            7.237701
          ],
          [
            6.521721,
            7.245959
          ],
          [
            6.525312,
            7.254217
          ],
          [
            6.528902,
            7.262474
          ],
          [
            6.532492,
            7.270732
          ],
          [
            6.536083,
            7.27899
          ],
          [
            6.539673,
            7.287248
          ],
          [
            6.543264,
            7.295506
          ],
          [
            6.546854,
            7.303764
          ],
          [
            6.550444,
            7.312022
          ],
          [
            6.554035,
            7.32028
          ],
          [
            6.557625,
            7.328538
          ],
          [
            6.561216,
            7.336796
          ],
          [
            6.564806,
            7.345054
          ],
          [
            6.568396,
            7.353312
          ],
          [
            6.571987,
            7.361569
          ],
          [
            6.575577,
            7.369827
          ],
          [
            6.579168,
            7.378085
          ],
          [
            6.582713,
            7.386363
          ],
          [
            6.586244,
            7.394647
          ],
          [
            6.589775,
            7.40293
          ],
          [
            6.593307,
            7.411214
          ],
          [
            6.596838,
            7.419497
          ],
          [
            6.600369,
            7.427781
          ],
          [
            6.603901,
            7.436065
          ],
          [
            6.607432,
            7.444348
          ],
          [
            6.610963,
            7.452632
          ],
          [
            6.614495,
            7.460915
          ],
          [
            6.618026,
            7.469199
          ],
          [
            6.621557,
            7.477483
          ],
          [
            6.625089,
            7.485766
          ],
          [
            6.62862,
            7.49405
          ],
          [
            6.632151,
            7.502334
          ],
          [
            6.635683,
            7.510617
          ],
          [
            6.639214,
            7.518901
          ],
          [
            6.642745,
            7.527184
          ],
          [
            6.646277,
            7.535468
          ],
          [
            6.649808,
            7.543752
          ],
          [
            6.653339,
            7.552035
          ],
          [
            6.6552,
            7.5564
          ]
        ]
      }
    }
  ]
}